#aV2020  8 10  0  0  0.00000000     288 DD+AD WGS84 FIT  NGA
## 2118  86400.00000000   300.00000000 59071 0.0000000000000
+   31     1  2  3  4  5  6  7  8  9 10 11 12 13 15 16 17 18
+         19 20 21 22 23 24 25 26 27 28 29 30 31 32  0  0  0
+          0  0  0  0  0  0  0  0  0  0  0  0  0  0  0  0  0
+          0  0  0  0  0  0  0  0  0  0  0  0  0  0  0  0  0
+          0  0  0  0  0  0  0  0  0  0  0  0  0  0  0  0  0
++         2  2  2  2  2  2  2  2  2  2  2  2  2  2  2  2  2
++         2  2  2  2  2  2  2  2  2  2  2  2  2  2  0  0  0
++         0  0  0  0  0  0  0  0  0  0  0  0  0  0  0  0  0
++         0  0  0  0  0  0  0  0  0  0  0  0  0  0  0  0  0
++         0  0  0  0  0  0  0  0  0  0  0  0  0  0  0  0  0
%c cc cc ccc ccc cccc cccc cccc cccc ccccc ccccc ccccc ccccc
%c cc cc ccc ccc cccc cccc cccc cccc ccccc ccccc ccccc ccccc
%f  0.0000000  0.000000000  0.00000000000  0.000000000000000
%f  0.0000000  0.000000000  0.00000000000  0.000000000000000
%i    0    0    0    0      0      0      0      0         0
%i    0    0    0    0      0      0      0      0         0
/*      NGA, ST. LOUIS,MO.                                  
/*   EPHEMERIS COMPUTED FROM 2 DAYS OF DATA                 
/*   EPOCHA v5 SMOOTHER                                     
/*   G1762 IERS2010 SATAF SATAPC                            
*  2020  8 10  6 50  0.00000000
P  1  -6250.517619 -14061.557939 -21922.057788     32.860851                    
V  1  26974.373732  -3265.496703  -5334.927461      0.024938                    
P  2 -16241.217735  14459.084898  15865.955107   -500.034875                    
V  2 -19015.288930   1819.660479 -22061.368887     -0.054994                    
P  3 -11461.920824 -23067.439429  -6776.157601   -265.676586                    
V  3   7013.832201   5334.494419 -30253.285397     -0.111359                    
P  4  -2780.864542 -20872.257982  16176.966472   -122.777760                    
V  4  10399.262560 -17815.368699 -21245.838194     -0.044023                    
P  5  -5509.822674  16064.639838  20226.067235    -18.501602                    
V  5 -17252.921977 -19603.311378  10982.818840     -0.008267                    
P  6 -25404.535926   6279.504003   4711.620097   -313.840343                    
V  6  -6113.267861  -1378.856676 -31415.561005     -0.043509                    
P  7 -22392.231448  -6994.025900  13233.101943   -346.882191                    
V  7  15794.837900  -3777.521953  24864.486146     -0.084824                    
P  8   5185.764363 -25013.652509  -6750.425412    -43.967199                    
V  8   5699.338851  -7006.603909  30544.976271     -0.012768                    
P  9 -11883.710417 -10686.592032  21159.593893   -267.976672                    
V  9  10782.396654 -24782.351569  -6460.158587     -0.061036                    
P 10  19178.729555   5162.897754 -17664.941134   -423.619551                    
V 10  12411.719066  18819.208901  18641.369116     -0.103245                    
P 11   3151.939574 -19371.803801 -18521.450318   -196.869474                    
V 11  19772.981440 -11113.467967  15050.592556      0.106099                    
P 12   9221.425470  23846.470785  -7708.061217     82.507940                    
V 12  -6774.798402  -6831.812618 -30012.277785     -0.049351                    
P 13 -13252.235418  22951.319233   -271.979709     34.473034                    
V 13  -2416.528074  -1185.402265  31979.397153      0.034451                    
P 15  -1775.724761  25290.204713  -7566.764879   -211.626552                    
V 15  -6381.728280   7809.246341  29220.739368      0.025875                    
P 16   4397.177800 -17433.105882  19170.646112   -193.791913                    
V 16  14304.979948  20451.571132  15579.208534     -0.049163                    
P 17 -17237.011567   7070.691824 -18490.045515    308.850394                    
V 17   9685.346876 -22346.141006 -17226.575668      0.056479                    
P 18  22442.360867   6597.731644  12602.712238    266.562073                    
V 18 -15716.940638   3726.546899  25971.179200      0.083793                    
P 19 -18233.582072  13408.715059 -14152.113127   -120.435027                    
V 19   7055.109635 -16036.493200 -24859.253446      0.050695                    
P 20  21598.028446  13612.204875  -7832.294160    527.079173                    
V 20   4646.339492   9210.165924  28875.026434     -0.000977                    
P 21  23627.235097  -9270.849793  -6573.011291     33.936540                    
V 21   9845.415372   1451.780356  30266.422059      0.044201                    
P 22  -6483.184048 -21998.900290 -13320.117331   -765.379928                    
V 22  13676.369361  10912.570327 -24160.765568      0.031917                    
P 23  20219.619796  13467.613486 -10770.239715     34.849862                    
V 23   6548.515024  12197.200193  27615.101928      0.122167                    
P 24   3955.150542  15379.205413 -21501.083198    -16.935059                    
V 24 -26472.779815   4878.704905  -1019.555718     -0.005631                    
P 25  17090.972126  20385.681690   2077.758593     33.568903                    
V 25   -239.119362   3810.033125 -31529.234579      0.047454                    
P 26  14582.179782  -6361.775853  21259.202196    258.723790                    
V 26  16719.355398  21331.290198  -4851.570760      0.066502                    
P 27  12462.824792 -22924.425356   3725.038159   -367.487409                    
V 27    404.041105   5547.777969  31883.797005     -0.093424                    
P 28 -17757.675354  -5098.426611 -18443.828665    691.027167                    
V 28 -11673.942629 -21760.578541  16879.082560     -0.038643                    
P 29   7813.320389  14737.736888  20615.759997   -169.486876                    
V 29 -12607.520313  22999.603937 -11680.062852     -0.083205                    
P 30 -26474.049972   -114.352588   3348.820598   -279.336130                    
V 30   3869.041545  -3669.146160  30713.235939     -0.074636                    
P 31  25106.668007  -6864.729886   6342.203056    -61.223239                    
V 31   8210.505848   1685.343602 -30011.379253     -0.024414                    
P 32  17339.557734  -8288.494303 -18182.262056    330.433155                    
V 32  -7414.012067  22184.856005 -17249.990185      0.055704                    
EOF
